NORAD_CAT_ID,OBJECT_NAME,OBJECT_TYPE,EPOCH,MEAN_MOTION,ECCENTRICITY,INCLINATION,RA_OF_ASC_NODE,ARG_OF_PERICENTER,MEAN_ANOMALY,BSTAR,MEAN_MOTION_DOT,MEAN_MOTION_DDOT,TLE_LINE0,TLE_LINE1,TLE_LINE2,SEMIMAJOR_AXIS,PERIOD,APOGEE,PERIGEE,DECAYED
51722.0,STARLINK-3535,PAYLOAD,2022-06-10 00:00:00,15.0880283,0.0001576999999999,53.2148,353.4034,54.4557,332.0415,0.0029388,0.00046746,0.0,0 STARLINK-3535,1 51722U 22016J   22161.00001157  .00046746  00000-0  29388-2 0  9993,2 51722  53.2148 353.4034 0001577  54.4557 332.0415 15.08802830 17869,6917.994000000002,95.44,540.95,538.768,0.0
51722.0,STARLINK-3535,PAYLOAD,2022-06-10 14:00:01,15.08843548,0.0001517,53.2151,350.7825,63.9397,252.8126,8.7518e-06,-1.49e-06,0.0,0 STARLINK-3535,1 51722U 22016J   22161.58334491 -.00000149  00000-0  87518-5 0  9996,2 51722  53.2151 350.7825 0001517  63.9397 252.8126 15.08843548 17940,6917.87,95.437,540.784,538.685,0.0
51722.0,STARLINK-3535,PAYLOAD,2022-06-10 22:00:00,15.08823972,0.000167,53.2151,349.2877,55.8614,272.4971,0.0025704,0.00040839,0.0,0 STARLINK-3535,1 51722U 22016J   22161.91667824  .00040839  00000-0  25704-2 0  9997,2 51722  53.2151 349.2877 0001670  55.8614 272.4971 15.08823972  1300,6917.929,95.439,540.95,538.639,0.0
51722.0,STARLINK-3535,PAYLOAD,2022-06-11 22:00:00,15.08816064,0.0001807,53.2153,344.7981,57.9673,305.2037,0.0028507,0.00045344,0.0,0 STARLINK-3535,1 51722U 22016J   22162.91667824  .00045344  00000-0  28507-2 0  9998,2 51722  53.2153 344.7981 0001807  57.9673 305.2037 15.08816064 18140,6917.954000000002,95.439,541.069,538.568,0.0
51722.0,STARLINK-3535,PAYLOAD,2022-06-12 14:00:01,15.08878241,0.0001634,53.2155,341.8035,63.8734,322.4779,-0.0035236,-0.00055989,0.0,0 STARLINK-3535,1 51722U 22016J   22163.58334491 -.00055989  00000-0 -35236-2 0  9998,2 51722  53.2155 341.8035 0001634  63.8734 322.4779 15.08878241 18253,6917.764,95.435,540.759,538.498,0.0
51722.0,STARLINK-3535,PAYLOAD,2022-06-12 22:00:00,15.08809143,0.0001683,53.2153,340.3084,55.5243,342.4545,0.0031466,0.00050104,0.0,0 STARLINK-3535,1 51722U 22016J   22163.91667824  .00050104  00000-0  31466-2 0  9997,2 51722  53.2153 340.3084 0001683  55.5243 342.4545 15.08809143  1302,6917.975,95.44,541.004,538.675,0.0
51722.0,STARLINK-3535,PAYLOAD,2022-06-13 06:00:02,15.08834917,0.0001523,53.2154,338.8101,60.9809,348.6471,0.00082251,0.00012825,0.0,0 STARLINK-3535,1 51722U 22016J   22164.25002315  .00012825  00000-0  82251-3 0  9990,2 51722  53.2154 338.8101 0001523  60.9809 348.6471 15.08834917 18352,6917.896,95.438,540.815,538.707,0.0
51722.0,STARLINK-3535,PAYLOAD,2022-06-13 14:00:01,15.08879232,0.0001501999999999,53.2156,337.314,61.6806,359.4746,-0.00347,-0.00055149,0.0,0 STARLINK-3535,1 51722U 22016J   22164.58334491 -.00055149  00000-0 -34700-2 0  9992,2 51722  53.2156 337.3140 0001502  61.6806 359.4746 15.08879232  1304,6917.76,95.435,540.665,538.586,0.0
51722.0,STARLINK-3535,PAYLOAD,2022-06-13 22:00:00,15.08813003,0.0001561999999999,53.2153,335.8188,53.2334,19.5509,0.0035582,0.00056755,0.0,0 STARLINK-3535,1 51722U 22016J   22164.91667824  .00056755  00000-0  35582-2 0  9999,2 51722  53.2153 335.8188 0001562  53.2334  19.5509 15.08813003  1300,6917.9630000000025,95.439,540.908,538.747,0.0
51722.0,STARLINK-3535,PAYLOAD,2022-06-14 06:00:00,15.0883925,0.0001441999999999,53.2153,334.3205,60.8818,23.4948,-0.0012203,-0.00019656,0.0,0 STARLINK-3535,1 51722U 22016J   22165.25001157 -.00019656  00000-0 -12203-2 0  9994,2 51722  53.2153 334.3205 0001442  60.8818  23.4948 15.08839250 18505,6917.8830000000025,95.438,540.745,538.75,0.0
51722.0,STARLINK-3535,PAYLOAD,2022-06-14 14:00:01,15.08843839,0.0001512,53.2154,332.8245,62.9747,32.9818,-0.0011039,-0.00017815,0.0,0 STARLINK-3535,1 51722U 22016J   22165.58334491 -.00017815  00000-0 -11039-2 0  9991,2 51722  53.2154 332.8245 0001512  62.9747  32.9818 15.08843839  1304,6917.869000000002,95.437,540.78,538.688,0.0
51722.0,STARLINK-3535,PAYLOAD,2022-06-14 22:00:00,15.08818587,0.0001556,53.215,331.3293,54.5174,53.0314,0.00021722,3.169e-05,0.0,0 STARLINK-3535,1 51722U 22016J   22165.91667824  .00003169  00000-0  21722-3 0  9993,2 51722  53.2150 331.3293 0001556  54.5174  53.0314 15.08818587  1303,6917.946,95.439,540.887,538.734,0.0
51722.0,STARLINK-3535,PAYLOAD,2022-06-15 06:00:00,15.08799493,0.0001343,53.215,329.8311,60.7975,58.3331,0.0018507,0.00029256,0.0,0 STARLINK-3535,1 51722U 22016J   22166.25001157  .00029256  00000-0  18507-2 0  9993,2 51722  53.2150 329.8311 0001343  60.7975  58.3331 15.08799493 18655,6918.004,95.44,540.798,538.94,0.0
51722.0,STARLINK-3535,PAYLOAD,2022-06-15 14:00:01,15.088400699999998,0.0001415,53.2151,328.3353,61.3318,69.35600000000001,-0.0012479,-0.00020093,0.0,0 STARLINK-3535,1 51722U 22016J   22166.58334491 -.00020093  00000-0 -12479-2 0  9993,2 51722  53.2151 328.3353 0001415  61.3318  69.3560 15.08840070  1302,6917.88,95.438,540.724,538.766,0.0
51722.0,STARLINK-3535,PAYLOAD,2022-06-15 22:00:00,15.08815321,0.0001501999999999,53.2147,326.84,52.8158,89.4664,0.0034216,0.00054552,0.0,0 STARLINK-3535,1 51722U 22016J   22166.91667824  .00054552  00000-0  34216-2 0  9997,2 51722  53.2147 326.8400 0001502  52.8158  89.4664 15.08815321  1306,6917.956,95.439,540.86,538.7819999999998,0.0
51722.0,STARLINK-3535,PAYLOAD,2022-06-16 02:00:01,15.08861352,0.0001446,53.2147,326.0908,55.3825,272.6884,-0.0013433,-0.00021615,0.0,0 STARLINK-3535,1 51722U 22016J   22167.08334491 -.00021615  00000-0 -13433-2 0  9991,2 51722  53.2147 326.0908 0001446  55.3825 272.6884 15.08861352  1302,6917.815,95.436,540.68,538.68,0.0
51722.0,STARLINK-3535,PAYLOAD,2022-06-19 14:00:01,15.08868593,0.0001556,53.2152,310.3791,54.4401,215.2988,-0.0031765,-0.00050527,0.0,0 STARLINK-3535,1 51722U 22016J   22170.58334491 -.00050527  00000-0 -31765-2 0  9992,2 51722  53.2152 310.3791 0001556  54.4401 215.2988 15.08868593  1308,6917.793000000002,95.436,540.734,538.582,0.0
51722.0,STARLINK-3535,PAYLOAD,2022-06-19 20:00:01,15.08816567,0.0001602,53.2152,309.2575,47.6817,140.7795,0.002778,0.00044173,0.0,0 STARLINK-3535,1 51722U 22016J   22170.83334491  .00044173  00000-0  27780-2 0  9990,2 51722  53.2152 309.2575 0001602  47.6817 140.7795 15.08816567 19347,6917.9519999999975,95.439,540.925,538.7090000000002,0.0
51722.0,STARLINK-3535,PAYLOAD,2022-06-19 22:00:00,15.08835795,0.0001561999999999,53.2149,308.8831,47.1805,234.1711,0.00078227,0.00012182,0.0,0 STARLINK-3535,1 51722U 22016J   22170.91667824  .00012182  00000-0  78227-3 0  9996,2 51722  53.2149 308.8831 0001562  47.1805 234.1711 15.08835795  1307,6917.893,95.438,540.839,538.678,0.0
51722.0,STARLINK-3535,PAYLOAD,2022-06-20 14:00:01,15.08857502,0.0001578,53.2152,305.8898,53.4497,251.0938,-0.0032436,-0.00051565,0.0,0 STARLINK-3535,1 51722U 22016J   22171.58334491 -.00051565  00000-0 -32436-2 0  9992,2 51722  53.2152 305.8898 0001578  53.4497 251.0938 15.08857502  1304,6917.8269999999975,95.436,540.784,538.6,0.0
51722.0,STARLINK-3535,PAYLOAD,2022-06-20 22:00:00,15.08839894,0.0001638,53.2148,304.3937,49.8815,266.2599,0.0005104,7.844e-05,0.0,0 STARLINK-3535,1 51722U 22016J   22171.91667824  .00007844  00000-0  51040-3 0  9990,2 51722  53.2148 304.3937 0001638  49.8815 266.2599 15.08839894 19503,6917.880999999999,95.438,540.879,538.613,0.0
51722.0,STARLINK-3535,PAYLOAD,2022-06-21 14:00:01,15.08835114,0.0001698,53.215,301.4006,56.7932,282.5214,-0.00084879,-0.00013769,0.0,0 STARLINK-3535,1 51722U 22016J   22172.58334491 -.00013769  00000-0 -84879-3 0  9996,2 51722  53.2150 301.4006 0001698  56.7932 282.5214 15.08835114 19601,6917.895,95.438,540.935,538.586,0.0
51722.0,STARLINK-3535,PAYLOAD,2022-06-21 22:00:00,15.08841619,0.0001704,53.2144,299.9042,53.2038,297.6895,-0.00020095,-3.485e-05,0.0,0 STARLINK-3535,1 51722U 22016J   22172.91667824 -.00003485  00000-0 -20095-3 0  9996,2 51722  53.2144 299.9042 0001704  53.2038 297.6895 15.08841619  1309,6917.875,95.437,540.919,538.562,0.0
51722.0,STARLINK-3535,PAYLOAD,2022-06-22 06:00:00,15.08820006,0.0001536,53.2145,298.4062,61.5468,300.9496,0.0034179,0.00054499,0.0,0 STARLINK-3535,1 51722U 22016J   22173.25001157  .00054499  00000-0  34179-2 0  9991,2 51722  53.2145 298.4062 0001536  61.5468 300.9496 15.08820006 19703,6917.941999999999,95.439,540.869,538.744,0.0
51722.0,STARLINK-3535,PAYLOAD,2022-06-22 14:00:01,15.08859834,0.0001611,53.2145,296.9113,55.6927,318.3956,-0.0038195,-0.00060597,0.0,0 STARLINK-3535,1 51722U 22016J   22173.58334491 -.00060597  00000-0 -38195-2 0  9997,2 51722  53.2145 296.9113 0001611  55.6927 318.3956 15.08859834  1303,6917.82,95.436,540.799,538.57,0.0
51722.0,STARLINK-3535,PAYLOAD,2022-06-22 16:00:00,15.08833087,0.0001631,53.2145,296.5375,54.4302,52.5651,-0.001094,-0.00017654,0.0,0 STARLINK-3535,1 51722U 22016J   22173.66667824 -.00017654  00000-0 -10940-2 0  9999,2 51722  53.2145 296.5375 0001631  54.4302  52.5651 15.08833087 19776,6917.901999999999,95.438,540.895,538.638,0.0
51722.0,STARLINK-3535,PAYLOAD,2022-06-22 22:00:00,15.08840689,0.0001569,53.214,295.4147,51.2086,334.4741,-0.0004799,-7.918e-05,0.0,0 STARLINK-3535,1 51722U 22016J   22173.91667824 -.00007918  00000-0 -47990-3 0  9995,2 51722  53.2140 295.4147 0001569  51.2086 334.4741 15.08840689  1308,6917.878000000002,95.438,540.8290000000002,538.658,0.0
51722.0,STARLINK-3535,PAYLOAD,2022-06-23 06:00:00,15.08817062,0.0001436,53.214,293.9167,60.1819,337.0975,0.0034399,0.0005485,0.0,0 STARLINK-3535,1 51722U 22016J   22174.25001157  .00054850  00000-0  34399-2 0  9997,2 51722  53.2140 293.9167 0001436  60.1819 337.0975 15.08817062 19866,6917.951,95.439,540.809,538.822,0.0
51722.0,STARLINK-3535,PAYLOAD,2022-06-23 14:00:01,15.08859386,0.0001611,53.214,292.422,55.414,353.4502,-0.0021297,-0.00034041,0.0,0 STARLINK-3535,1 51722U 22016J   22174.58334491 -.00034041  00000-0 -21297-2 0  9998,2 51722  53.2140 292.4220 0001611  55.4140 353.4502 15.08859386  1302,6917.821,95.436,540.8009999999998,538.572,0.0
